TEVEL2-6                
1 63215U 25052F   26068.64958975  .00021046  00000+0  70909-3 0  9996
2 63215  97.4016 325.0381 0004769  95.6604 264.5181 15.30760889 54861
STARLINK-36045          
1 66811U 25278W   26068.46201342  .00033175  00000+0  12094-2 0  9996
2 66811  43.0003 115.7060 0001866 259.8192 100.2449 15.27586217 15179
