[{"OBJECT_NAME":"TEVEL2-6","OBJECT_ID":"2025-052F","EPOCH":"2026-03-09T15:35:24.554400","MEAN_MOTION":15.30760889,"ECCENTRICITY":0.0004769,"INCLINATION":97.4016,"RA_OF_ASC_NODE":325.0381,"ARG_OF_PERICENTER":95.6604,"MEAN_ANOMALY":264.5181,"EPHEMERIS_TYPE":0,"CLASSIFICATION_TYPE":"U","NORAD_CAT_ID":63215,"ELEMENT_SET_NO":999,"REV_AT_EPOCH":5486,"BSTAR":0.00070909,"MEAN_MOTION_DOT":0.00021046,"MEAN_MOTION_DDOT":0},{"OBJECT_NAME":"STARLINK-36045","OBJECT_ID":"2025-278W","EPOCH":"2026-03-09T11:05:17.959488","MEAN_MOTION":15.27586217,"ECCENTRICITY":0.00018662,"INCLINATION":43.0003,"RA_OF_ASC_NODE":115.706,"ARG_OF_PERICENTER":259.8192,"MEAN_ANOMALY":100.2449,"EPHEMERIS_TYPE":0,"CLASSIFICATION_TYPE":"U","NORAD_CAT_ID":66811,"ELEMENT_SET_NO":999,"REV_AT_EPOCH":1517,"BSTAR":0.001209413,"MEAN_MOTION_DOT":0.00033175,"MEAN_MOTION_DDOT":0}]
